{"type": "FeatureCollection", "features": [ {"type": "Feature", "properties": {"norad_id": 42741, "name": "EUTELSAT 172B", "group": "eutelsat", "lat": 0.0034683711363450833, "lon": 178.14821783640568, "alt_km": 35785.659859013205, "timestamp": "2025-12-03T19:33:06.651103+00:00", "meta": {"OBJECT_NAME": "EUTELSAT 172B", "OBJECT_ID": "2017-029B", "EPOCH": "2025-12-03T11:53:38.524992", "MEAN_MOTION": 1.00271157, "ECCENTRICITY": 1.91e-05, "INCLINATION": 0.0204, "RA_OF_ASC_NODE": 138.9555, "ARG_OF_PERICENTER": 82.4231, "MEAN_ANOMALY": 201.6143, "EPHEMERIS_TYPE": 0, "CLASSIFICATION_TYPE": "U", "NORAD_CAT_ID": 42741, "ELEMENT_SET_NO": 999, "REV_AT_EPOCH": 3176, "BSTAR": 0, "MEAN_MOTION_DOT": 1.3e-07, "MEAN_MOTION_DDOT": 0}, "tle": {"line1": "1 42741U 17029B   25337.49558478  .00000013  00000+0  00000+0 0  9999", "line2": "2 42741   0.0204 138.9555 0000191  82.4231 201.6143  1.00271157 31761"}}, "geometry": {"type": "Point", "coordinates": [178.14821783640568, 0.0034683711363450833]}}, {"type": "Feature", "properties": {"norad_id": 44334, "name": "EUTELSAT 7C", "group": "eutelsat", "lat": 0.014265163760581453, "lon": 13.16359676693649, "alt_km": 35797.384230899035, "timestamp": "2025-12-03T19:33:06.651115+00:00", "meta": {"OBJECT_NAME": "EUTELSAT 7C", "OBJECT_ID": "2019-034B", "EPOCH": "2025-12-03T06:56:26.020320", "MEAN_MOTION": 1.00269069, "ECCENTRICITY": 0.0003399, "INCLINATION": 0.0762, "RA_OF_ASC_NODE": 181.9926, "ARG_OF_PERICENTER": 53.7303, "MEAN_ANOMALY": 307.756, "EPHEMERIS_TYPE": 0, "CLASSIFICATION_TYPE": "U", "NORAD_CAT_ID": 44334, "ELEMENT_SET_NO": 999, "REV_AT_EPOCH": 487, "BSTAR": 0, "MEAN_MOTION_DOT": 6.7e-07, "MEAN_MOTION_DDOT": 0}, "tle": {"line1": "1 44334U 19034B   25337.28919005  .00000067  00000+0  00000+0 0  9990", "line2": "2 44334   0.0762 181.9926 0003399  53.7303 307.7560  1.00269069  4876"}}, "geometry": {"type": "Point", "coordinates": [13.16359676693649, 0.014265163760581453]}}, {"type": "Feature", "properties": {"norad_id": 44624, "name": "EUTELSAT 5 WEST B", "group": "eutelsat", "lat": 0.055698622253128674, "lon": 1.2095784124650864, "alt_km": 35790.555761116055, "timestamp": "2025-12-03T19:33:06.651126+00:00", "meta": {"OBJECT_NAME": "EUTELSAT 5 WEST B", "OBJECT_ID": "2019-067A", "EPOCH": "2025-12-03T06:52:56.355168", "MEAN_MOTION": 1.00272745, "ECCENTRICITY": 0.0003689, "INCLINATION": 0.0714, "RA_OF_ASC_NODE": 328.1071, "ARG_OF_PERICENTER": 285.389, "MEAN_ANOMALY": 277.1323, "EPHEMERIS_TYPE": 0, "CLASSIFICATION_TYPE": "U", "NORAD_CAT_ID": 44624, "ELEMENT_SET_NO": 999, "REV_AT_EPOCH": 2247, "BSTAR": 0, "MEAN_MOTION_DOT": -2.3e-07, "MEAN_MOTION_DDOT": 0}, "tle": {"line1": "1 44624U 19067A   25337.28676337 -.00000023  00000+0  00000+0 0  9999", "line2": "2 44624   0.0714 328.1071 0003689 285.3890 277.1323  1.00272745 22475"}}, "geometry": {"type": "Point", "coordinates": [1.2095784124650864, 0.055698622253128674]}}, {"type": "Feature", "properties": {"norad_id": 45027, "name": "EUTELSAT KONNECT", "group": "eutelsat", "lat": -0.04017848684015964, "lon": 13.356474503966007, "alt_km": 35786.73208091863, "timestamp": "2025-12-03T19:33:06.651138+00:00", "meta": {"OBJECT_NAME": "EUTELSAT KONNECT", "OBJECT_ID": "2020-005B", "EPOCH": "2025-12-03T08:39:12.545568", "MEAN_MOTION": 1.00268225, "ECCENTRICITY": 0.0001735, "INCLINATION": 0.068, "RA_OF_ASC_NODE": 99.5076, "ARG_OF_PERICENTER": 186.6252, "MEAN_ANOMALY": 283.3105, "EPHEMERIS_TYPE": 0, "CLASSIFICATION_TYPE": "U", "NORAD_CAT_ID": 45027, "ELEMENT_SET_NO": 999, "REV_AT_EPOCH": 2236, "BSTAR": 0, "MEAN_MOTION_DOT": 6.8e-07, "MEAN_MOTION_DDOT": 0}, "tle": {"line1": "1 45027U 20005B   25337.36056187  .00000068  00000+0  00000+0 0  9993", "line2": "2 45027   0.0680  99.5076 0001735 186.6252 283.3105  1.00268225 22367"}}, "geometry": {"type": "Point", "coordinates": [13.356474503966007, -0.04017848684015964]}}, {"type": "Feature", "properties": {"norad_id": 49056, "name": "EUTELSAT QUANTUM", "group": "eutelsat", "lat": 0.02918740892721436, "lon": 53.88493473645393, "alt_km": 35799.54536422808, "timestamp": "2025-12-03T19:33:06.651150+00:00", "meta": {"OBJECT_NAME": "EUTELSAT QUANTUM", "OBJECT_ID": "2021-069B", "EPOCH": "2025-12-03T10:33:31.592736", "MEAN_MOTION": 1.00271746, "ECCENTRICITY": 0.0003767, "INCLINATION": 0.0178, "RA_OF_ASC_NODE": 15.1449, "ARG_OF_PERICENTER": 251.0875, "MEAN_ANOMALY": 12.3881, "EPHEMERIS_TYPE": 0, "CLASSIFICATION_TYPE": "U", "NORAD_CAT_ID": 49056, "ELEMENT_SET_NO": 999, "REV_AT_EPOCH": 1596, "BSTAR": 0, "MEAN_MOTION_DOT": 1.44e-06, "MEAN_MOTION_DDOT": 0}, "tle": {"line1": "1 49056U 21069B   25337.43994899  .00000144  00000+0  00000+0 0  9994", "line2": "2 49056   0.0178  15.1449 0003767 251.0875  12.3881  1.00271746 15969"}}, "geometry": {"type": "Point", "coordinates": [53.88493473645393, 0.02918740892721436]}}, {"type": "Feature", "properties": {"norad_id": 53765, "name": "EUTELSAT KONNECT VHTS", "group": "eutelsat", "lat": -0.03359029905515632, "lon": 8.858732502048618, "alt_km": 35795.583499172535, "timestamp": "2025-12-03T19:33:06.651161+00:00", "meta": {"OBJECT_NAME": "EUTELSAT KONNECT VHTS", "OBJECT_ID": "2022-110A", "EPOCH": "2025-12-03T05:12:28.480320", "MEAN_MOTION": 1.00269007, "ECCENTRICITY": 0.0002764, "INCLINATION": 0.0603, "RA_OF_ASC_NODE": 107.1016, "ARG_OF_PERICENTER": 123.1613, "MEAN_ANOMALY": 282.8564, "EPHEMERIS_TYPE": 0, "CLASSIFICATION_TYPE": "U", "NORAD_CAT_ID": 53765, "ELEMENT_SET_NO": 999, "REV_AT_EPOCH": 486, "BSTAR": 0, "MEAN_MOTION_DOT": 3.6e-07, "MEAN_MOTION_DDOT": 0}, "tle": {"line1": "1 53765U 22110A   25337.21699630  .00000036  00000+0  00000+0 0  9995", "line2": "2 53765   0.0603 107.1016 0002764 123.1613 282.8564  1.00269007  4867"}}, "geometry": {"type": "Point", "coordinates": [8.858732502048618, -0.03359029905515632]}}, {"type": "Feature", "properties": {"norad_id": 54048, "name": "EUTELSAT HOTBIRD 13F", "group": "eutelsat", "lat": 0.07422070285940663, "lon": 19.165794101181316, "alt_km": 35778.72943973386, "timestamp": "2025-12-03T19:33:06.651173+00:00", "meta": {"OBJECT_NAME": "EUTELSAT HOTBIRD 13F", "OBJECT_ID": "2022-134A", "EPOCH": "2025-12-02T19:57:38.448864", "MEAN_MOTION": 1.00271371, "ECCENTRICITY": 0.00019176, "INCLINATION": 0.0542, "RA_OF_ASC_NODE": 289.0481, "ARG_OF_PERICENTER": 66.1354, "MEAN_ANOMALY": 29.1621, "EPHEMERIS_TYPE": 0, "CLASSIFICATION_TYPE": "U", "NORAD_CAT_ID": 54048, "ELEMENT_SET_NO": 999, "REV_AT_EPOCH": 1140, "BSTAR": 0, "MEAN_MOTION_DOT": 1.07e-06, "MEAN_MOTION_DDOT": 0}, "tle": {"line1": "1 54048U 22134A   25336.83169501  .00000107  00000+0  00000+0 0  9991", "line2": "2 54048   0.0542 289.0481 0001917  66.1354  29.1621  1.00271371 11408"}}, "geometry": {"type": "Point", "coordinates": [19.165794101181316, 0.07422070285940663]}}, {"type": "Feature", "properties": {"norad_id": 54225, "name": "EUTELSAT HOTBIRD 13G", "group": "eutelsat", "lat": 0.04544556418834987, "lon": 19.14483111990204, "alt_km": 35794.740330778244, "timestamp": "2025-12-03T19:33:06.651185+00:00", "meta": {"OBJECT_NAME": "EUTELSAT HOTBIRD 13G", "OBJECT_ID": "2022-146A", "EPOCH": "2025-12-03T00:07:14.496096", "MEAN_MOTION": 1.00271219, "ECCENTRICITY": 0.00021047, "INCLINATION": 0.0475, "RA_OF_ASC_NODE": 238.4149, "ARG_OF_PERICENTER": 306.4933, "MEAN_ANOMALY": 262.0024, "EPHEMERIS_TYPE": 0, "CLASSIFICATION_TYPE": "U", "NORAD_CAT_ID": 54225, "ELEMENT_SET_NO": 999, "REV_AT_EPOCH": 549, "BSTAR": 0, "MEAN_MOTION_DOT": 1.07e-06, "MEAN_MOTION_DDOT": 0}, "tle": {"line1": "1 54225U 22146A   25337.00502889  .00000107  00000+0  00000+0 0  9991", "line2": "2 54225   0.0475 238.4149 0002104 306.4933 262.0024  1.00271219  5499"}}, "geometry": {"type": "Point", "coordinates": [19.14483111990204, 0.04544556418834987]}}, {"type": "Feature", "properties": {"norad_id": 54259, "name": "EUTELSAT 10B", "group": "eutelsat", "lat": -0.030794534248172422, "lon": 16.156122581868676, "alt_km": 35791.08323080108, "timestamp": "2025-12-03T19:33:06.651197+00:00", "meta": {"OBJECT_NAME": "EUTELSAT 10B", "OBJECT_ID": "2022-157A", "EPOCH": "2025-12-03T04:33:38.732832", "MEAN_MOTION": 1.00268425, "ECCENTRICITY": 0.0001038, "INCLINATION": 0.0608, "RA_OF_ASC_NODE": 103.578, "ARG_OF_PERICENTER": 72.8343, "MEAN_ANOMALY": 334.2971, "EPHEMERIS_TYPE": 0, "CLASSIFICATION_TYPE": "U", "NORAD_CAT_ID": 54259, "ELEMENT_SET_NO": 999, "REV_AT_EPOCH": 1106, "BSTAR": 0, "MEAN_MOTION_DOT": 8.7e-07, "MEAN_MOTION_DDOT": 0}, "tle": {"line1": "1 54259U 22157A   25337.19003163  .00000087  00000+0  00000+0 0  9998", "line2": "2 54259   0.0608 103.5780 0001038  72.8343 334.2971  1.00268425 11069"}}, "geometry": {"type": "Point", "coordinates": [16.156122581868676, -0.030794534248172422]}}, {"type": "Feature", "properties": {"norad_id": 59346, "name": "EUTELSAT 36D", "group": "eutelsat", "lat": 0.0418608932638373, "lon": 42.00816139413194, "alt_km": 35786.75415947205, "timestamp": "2025-12-03T19:33:06.651208+00:00", "meta": {"OBJECT_NAME": "EUTELSAT 36D", "OBJECT_ID": "2024-059A", "EPOCH": "2025-12-03T10:29:54.441024", "MEAN_MOTION": 1.00270785, "ECCENTRICITY": 6.35e-05, "INCLINATION": 0.0217, "RA_OF_ASC_NODE": 343.5943, "ARG_OF_PERICENTER": 319.0725, "MEAN_ANOMALY": 323.187, "EPHEMERIS_TYPE": 0, "CLASSIFICATION_TYPE": "U", "NORAD_CAT_ID": 59346, "ELEMENT_SET_NO": 999, "REV_AT_EPOCH": 618, "BSTAR": 0, "MEAN_MOTION_DOT": 0, "MEAN_MOTION_DDOT": 0}, "tle": {"line1": "1 59346U 24059A   25337.43743566  .00000000  00000+0  00000+0 0  9993", "line2": "2 59346   0.0217 343.5943 0000635 319.0725 323.1870  1.00270785  6180"}}, "geometry": {"type": "Point", "coordinates": [42.00816139413194, 0.0418608932638373]}}]}